COMMENT,ORIGINATOR,NORAD_CAT_ID,OBJECT_NAME,OBJECT_TYPE,CLASSIFICATION_TYPE,INTLDES,EPOCH,EPOCH_MICROSECONDS,MEAN_MOTION,ECCENTRICITY,INCLINATION,RA_OF_ASC_NODE,ARG_OF_PERICENTER,MEAN_ANOMALY,EPHEMERIS_TYPE,ELEMENT_SET_NO,REV_AT_EPOCH,BSTAR,MEAN_MOTION_DOT,MEAN_MOTION_DDOT,FILE,TLE_LINE0,TLE_LINE1,TLE_LINE2,OBJECT_ID,OBJECT_NUMBER,SEMIMAJOR_AXIS,PERIOD,APOGEE,PERIGEE,DECAYED
GENERATED VIA SPACETRACK.ORG API,18 SPCS,58292,UMBRA-08,PAYLOAD,U,23174AN,2025-09-01 04:44:57,843744,15.407494624,0.00011272104,97.401255,320.02019,249.71292,110.3996,0,999,10083,0.0021177197,0.00087393646,0,4821324,0 UMBRA-08,1 58292U 23174AN  25244.19789171  .00087394  00000-0  21177-2 0  9994,2 58292  97.4013 320.0202 0001127 249.7129 110.3996 15.40749462100839,2023-174AN,58292,6822.033,93.461,444.667,443.129,1
GENERATED VIA SPACETRACK.ORG API,18 SPCS,58292,UMBRA-08,PAYLOAD,U,23174AN,2025-09-01 10:59:02,783040,15.407919925,0.00011444074,97.401165,320.2834,253.16069,106.95139,0,999,10087,0.002190249,0.00090553783,0,4821362,0 UMBRA-08,1 58292U 23174AN  25244.45767110  .00090554  00000-0  21902-2 0  9990,2 58292  97.4012 320.2834 0001144 253.1607 106.9514 15.40791993100877,2023-174AN,58292,6821.908,93.458,444.553,442.992,1
GENERATED VIA SPACETRACK.ORG API,18 SPCS,58292,UMBRA-08,PAYLOAD,U,23174AN,2025-09-01 18:46:38,149536,15.40843067,0.00012400322,97.401376,320.61208,256.50193,103.60889,0,999,10092,0.0021269365,0.00088053391,0,4821406,0 UMBRA-08,1 58292U 23174AN  25244.78238599  .00088053  00000-0  21269-2 0  9997,2 58292  97.4014 320.6121 0001240 256.5019 103.6089 15.40843067100920,2023-174AN,58292,6821.757,93.455,444.468,442.776,1
GENERATED VIA SPACETRACK.ORG API,18 SPCS,58292,UMBRA-08,PAYLOAD,U,23174AN,2025-09-02 04:07:42,948768,15.409415017,0.00013138072,97.401446,321.00628,255.01917,105.09093,0,999,10098,0.0032968872,0.0013787182,0,4821465,0 UMBRA-08,1 58292U 23174AN  25245.17202487  .00137872  00000-0  32969-2 0  9991,2 58292  97.4014 321.0063 0001314 255.0192 105.0909 15.40941502100984,2023-174AN,58292,6821.466,93.449,444.228,442.435,1
GENERATED VIA SPACETRACK.ORG API,18 SPCS,58292,UMBRA-08,PAYLOAD,U,23174AN,2025-09-02 18:09:16,514496,15.410722701,0.00012967783,97.401693,321.59851,257.97484,102.13528,0,999,10107,0.0030301562,0.0012707932,0,4821549,0 UMBRA-08,1 58292U 23174AN  25245.75644114  .00127079  00000-0  30302-2 0  9999,2 58292  97.4017 321.5985 0001297 257.9748 102.1353 15.41072270101073,2023-174AN,58292,6821.080,93.441,443.830,442.061,1
GENERATED VIA SPACETRACK.ORG API,18 SPCS,58292,UMBRA-08,PAYLOAD,U,23174AN,2025-09-03 19:05:11,125824,15.413074889,0.00014669078,97.401623,322.65093,257.76941,102.33882,0,999,10123,0.0024721009,0.0010415732,0,4821716,0 UMBRA-08,1 58292U 23174AN  25246.79526766  .00104157  00000-0  24721-2 0  9996,2 58292  97.4016 322.6509 0001467 257.7694 102.3388 15.41307489101234,2023-174AN,58292,6820.386,93.427,443.252,441.251,1
GENERATED VIA SPACETRACK.ORG API,18 SPCS,58292,UMBRA-08,PAYLOAD,U,23174AN,2025-09-04 04:26:06,153216,15.413689413,0.00015738963,97.401811,323.04539,254.19663,105.91069,0,999,10129,0.0019521092,0.0008216268,0,4821752,0 UMBRA-08,1 58292U 23174AN  25247.18479344  .00082163  00000-0  19521-2 0  9993,2 58292  97.4018 323.0454 0001574 254.1966 105.9107 15.41368941101296,2023-174AN,58292,6820.205,93.423,443.144,440.997,1
GENERATED VIA SPACETRACK.ORG API,18 SPCS,58292,UMBRA-08,PAYLOAD,U,23174AN,2025-09-04 18:27:26,204256,15.414624001,0.0001607575,97.401843,323.63757,255.97566,104.13114,0,999,10138,0.0020458187,0.00086425764,0,4821832,0 UMBRA-08,1 58292U 23174AN  25247.76905329  .00086426  00000-0  20458-2 0  9991,2 58292  97.4018 323.6376 0001608 255.9757 104.1311 15.41462400101383,2023-174AN,58292,6819.929,93.418,442.891,440.698,1
GENERATED VIA SPACETRACK.ORG API,18 SPCS,58292,UMBRA-08,PAYLOAD,U,23174AN,2025-09-05 03:48:17,647776,15.415356822,0.00016268763,97.401803,324.03197,252.36862,107.73829,0,999,10144,0.0019755297,0.00083625921,0,4821894,0 UMBRA-08,1 58292U 23174AN  25248.15853759  .00083626  00000-0  19755-2 0  9991,2 58292  97.4018 324.0320 0001627 252.3686 107.7383 15.41535682101448,2023-174AN,58292,6819.713,93.413,442.688,440.469,1
GENERATED VIA SPACETRACK.ORG API,18 SPCS,58292,UMBRA-08,PAYLOAD,U,23174AN,2025-09-05 11:35:39,473664,15.415858862,0.00016166973,97.401771,324.36186,254.16525,105.9416,0,999,10149,0.0020500747,0.0008696693,0,4821945,0 UMBRA-08,1 58292U 23174AN  25248.48309576  .00086967  00000-0  20501-2 0  9992,2 58292  97.4018 324.3619 0001617 254.1653 105.9416 15.41585886101498,2023-174AN,58292,6819.565,93.410,442.533,440.328,1
GENERATED VIA SPACETRACK.ORG API,18 SPCS,58292,UMBRA-08,PAYLOAD,U,23174AN,2025-09-05 22:29:56,492160,15.416561059,0.0001643259,97.40164,324.82198,252.85994,107.24675,0,999,10156,0.001990368,0.0008460247,0,4822005,0 UMBRA-08,1 58292U 23174AN  25248.93745940  .00084602  00000-0  19904-2 0  9990,2 58292  97.4016 324.8220 0001643 252.8599 107.2468 15.41656106101566,2023-174AN,58292,6819.358,93.406,442.344,440.103,1
GENERATED VIA SPACETRACK.ORG API,18 SPCS,58292,UMBRA-08,PAYLOAD,U,23174AN,2025-09-06 04:43:48,131040,15.417102412,0.00016951572,97.401654,325.08516,252.51364,107.59252,0,999,10160,0.0022231333,0.00094801916,0,4822049,0 UMBRA-08,1 58292U 23174AN  25249.19708485  .00094802  00000-0  22231-2 0  9992,2 58292  97.4017 325.0852 0001695 252.5136 107.5925 15.41710241101609,2023-174AN,58292,6819.199,93.403,442.220,439.908,1
GENERATED VIA SPACETRACK.ORG API,18 SPCS,58292,UMBRA-08,PAYLOAD,U,23174AN,2025-09-06 21:51:51,494688,15.418492666,0.00018075568,97.401266,325.80931,252.45542,107.64953,0,999,10171,0.0025229251,0.0010828503,0,4822078,0 UMBRA-08,1 58292U 23174AN  25249.91101267  .00108285  00000-0  25229-2 0  9998,2 58292  97.4013 325.8093 0001808 252.4554 107.6495 15.41849267101715,2023-174AN,58292,6818.789,93.394,441.886,439.421,1
GENERATED VIA SPACETRACK.ORG API,18 SPCS,58292,UMBRA-08,PAYLOAD,U,23174AN,2025-09-07 04:05:40,470720,15.418890125,0.00018102901,97.4013,326.07252,250.41299,109.69217,0,999,10175,0.0017386802,0.0007436851,0,4822108,0 UMBRA-08,1 58292U 23174AN  25250.17060730  .00074369  00000-0  17387-2 0  9998,2 58292  97.4013 326.0725 0001810 250.4130 109.6922 15.41889013101755,2023-174AN,58292,6818.671,93.392,441.771,439.302,1
GENERATED VIA SPACETRACK.ORG API,18 SPCS,58292,UMBRA-08,PAYLOAD,U,23174AN,2025-09-07 18:06:43,584768,15.419694168,0.00017987117,97.401136,326.66532,250.69524,109.41001,0,999,10184,0.0015589556,0.0006678493,0,4822130,0 UMBRA-08,1 58292U 23174AN  25250.75467112  .00066785  00000-0  15590-2 0  9994,2 58292  97.4011 326.6653 0001799 250.6952 109.4100 15.41969417101842,2023-174AN,58292,6818.434,93.387,441.526,439.073,1
GENERATED VIA SPACETRACK.ORG API,18 SPCS,58292,UMBRA-08,PAYLOAD,U,23174AN,2025-09-08 05:00:50,846112,15.420361736,0.0001875577,97.401137,327.12575,247.19663,112.90827,0,999,10191,0.0016457989,0.00070702877,0,4822176,0 UMBRA-08,1 58292U 23174AN  25251.20892183  .00070703  00000-0  16458-2 0  9994,2 58292  97.4011 327.1258 0001876 247.1966 112.9083 15.42036174101914,2023-174AN,58292,6818.238,93.383,441.381,438.824,1
GENERATED VIA SPACETRACK.ORG API,18 SPCS,58292,UMBRA-08,PAYLOAD,U,23174AN,2025-09-08 11:14:37,186944,15.420665575,0.000185599,97.400899,327.38952,247.69081,112.41423,0,999,10195,0.0016804507,0.00072281025,0,4822267,0 UMBRA-08,1 58292U 23174AN  25251.46848596  .00072281  00000-0  16805-2 0  9990,2 58292  97.4009 327.3895 0001856 247.6908 112.4142 15.42066558101953,2023-174AN,58292,6818.148,93.381,441.279,438.748,1
GENERATED VIA SPACETRACK.ORG API,18 SPCS,58292,UMBRA-08,PAYLOAD,U,23174AN,2025-09-08 17:28:23,88864,15.421004023,0.00019145691,97.400716,327.65285,248.37513,111.72919,0,999,10199,0.0016890994,0.00072739846,0,4822307,0 UMBRA-08,1 58292U 23174AN  25251.72804501  .00072740  00000-0  16891-2 0  9992,2 58292  97.4007 327.6529 0001915 248.3751 111.7292 15.42100402101997,2023-174AN,58292,6818.048,93.379,441.219,438.608,1
GENERATED VIA SPACETRACK.ORG API,18 SPCS,58292,UMBRA-08,PAYLOAD,U,23174AN,2025-09-09 18:23:21,666336,15.422259039,0.00020875802,97.400331,328.70627,247.05925,113.04345,0,999,10215,0.0013672292,0.00059004257,0,4822509,0 UMBRA-08,1 58292U 23174AN  25252.76622299  .00059004  00000-0  13672-2 0  9991,2 58292  97.4003 328.7063 0002088 247.0593 113.0435 15.42225904102158,2023-174AN,58292,6817.678,93.372,440.967,438.120,1
GENERATED VIA SPACETRACK.ORG API,18 SPCS,58292,UMBRA-08,PAYLOAD,U,23174AN,2025-09-10 03:43:56,739648,15.422743918,0.00021280987,97.400095,329.10092,243.40869,116.69423,0,999,10221,0.0011808795,0.00050979932,0,4822583,0 UMBRA-08,1 58292U 23174AN  25253.15551782  .00050980  00000-0  11809-2 0  9997,2 58292  97.4001 329.1009 0002128 243.4087 116.6942 15.42274392102218,2023-174AN,58292,6817.536,93.369,440.851,437.950,1
GENERATED VIA SPACETRACK.ORG API,18 SPCS,58292,UMBRA-08,PAYLOAD,U,23174AN,2025-09-10 17:44:47,336064,15.423489563,0.00020814474,97.399739,329.69367,241.93614,118.16755,0,999,10230,0.0013101443,0.00056752862,0,4822716,0 UMBRA-08,1 58292U 23174AN  25253.73943676  .00056753  00000-0  13101-2 0  9999,2 58292  97.3997 329.6937 0002081 241.9361 118.1676 15.42348956102301,2023-174AN,58292,6817.316,93.364,440.600,437.762,1
GENERATED VIA SPACETRACK.ORG API,18 SPCS,58292,UMBRA-08,PAYLOAD,U,23174AN,2025-09-11 04:38:45,164256,15.424003759,0.0002140644,97.398891,330.1545,240.14656,119.9569,0,999,10237,0.00126055,0.00054680508,0,4822732,0 UMBRA-08,1 58292U 23174AN  25254.19357829  .00054681  00000-0  12606-2 0  9996,2 58292  97.3989 330.1545 0002141 240.1466 119.9569 15.42400376102370,2023-174AN,58292,6817.164,93.361,440.489,437.570,1
GENERATED VIA SPACETRACK.ORG API,18 SPCS,58292,UMBRA-08,PAYLOAD,U,23174AN,2025-09-11 18:39:31,804416,15.424743767,0.00020882052,97.398012,330.74781,243.2742,116.82917,0,999,10246,0.0014888281,0.00064843078,0,4822839,0 UMBRA-08,1 58292U 23174AN  25254.77745144  .00064843  00000-0  14888-2 0  9996,2 58292  97.3980 330.7478 0002088 243.2742 116.8292 15.42474377102464,2023-174AN,58292,6816.946,93.356,440.235,437.388,1
